COSMOS 2251 DEB         
1 37118U 93036BGQ 17345.88008492  .00000732  00000-0  21864-3 0  9996
2 37118  74.0269 189.4033 0013557 256.9985 102.9659 14.44699438429765
